H1 CPF 01  gfz 2022 11 15 01  8191 tandemx   
H2 1003001  6202 36605    2022 11 15 00 59 42 2022 11 20 00 00 42   120 1 1  0 0 0
H9
10 0 59898  36702.000000  0    2627079.083  -3559023.144   5270366.352
10 0 59898  36822.000000  0    2825774.099  -4212020.310   4651398.255
10 0 59898  36942.000000  0    2964275.665  -4794353.412   3950560.469
10 0 59898  37062.000000  0    3041482.394  -5294757.595   3180167.666
10 0 59898  37182.000000  0    3057553.414  -5703395.804   2353772.181
10 0 59898  37302.000000  0    3013881.518  -6012059.686   1485922.938
10 0 59898  37422.000000  0    2913040.020  -6214339.305    591904.724
10 0 59898  37542.000000  0    2758706.575  -6305759.362   -312536.803
10 0 59898  37662.000000  0    2555563.268  -6283878.733  -1211481.669
10 0 59898  37782.000000  0    2309175.338  -6148346.291  -2089125.781
10 0 59898  37902.000000  0    2025853.344  -5900915.807  -2930065.686
10 0 59898  38022.000000  0    1712500.325  -5545418.505  -3719575.919
10 0 59898  38142.000000  0    1376449.504  -5087691.967  -4443867.714
10 0 59898  38262.000000  0    1025299.238  -4535472.119  -5090326.863
10 0 59898  38382.000000  0     666746.414  -3898251.369  -5647726.995
10 0 59898  38502.000000  0     308422.491  -3187105.681  -6106415.740
10 0 59898  38622.000000  0     -42264.237  -2414494.803  -6458470.683
10 0 59898  38742.000000  0    -378277.064  -1594040.429  -6697824.605
10 0 59898  38862.000000  0    -693087.307   -740286.343  -6820359.808
10 0 59898  38982.000000  0    -980796.567    131556.445  -6823971.524
10 0 59898  39102.000000  0   -1236243.987   1005874.851  -6708598.845
10 0 59898  39222.000000  0   -1455096.610   1866925.898  -6476225.467
10 0 59898  39342.000000  0   -1633921.218   2699112.799  -6130849.176
10 0 59898  39462.000000  0   -1770237.977   3487262.414  -5678422.124
10 0 59898  39582.000000  0   -1862554.252   4216900.001  -5126758.231
10 0 59898  39702.000000  0   -1910378.282   4874516.667  -4485410.244
10 0 59898  39822.000000  0   -1914212.424   5447825.133  -3765514.589
10 0 59898  39942.000000  0   -1875524.918   5925996.742  -2979606.291
10 0 59898  40062.000000  0   -1796700.642   6299875.487  -2141407.593
10 0 59898  40182.000000  0   -1680972.588   6562165.148  -1265591.421
10 0 59898  40302.000000  0   -1532334.379   6707582.012   -367523.589
10 0 59898  40422.000000  0   -1355436.133   6732971.175    537009.806
10 0 59898  40542.000000  0   -1155465.510   6637382.723   1432088.408
10 0 59898  40662.000000  0    -938017.404   6422099.716   2301949.412
10 0 59898  40782.000000  0    -708955.110   6090619.677   3131273.422
10 0 59898  40902.000000  0    -474267.496   5648593.561   3905460.242
10 0 59898  41022.000000  0    -239925.536   5103722.277   4610892.735
10 0 59898  41142.000000  0     -11742.665   4465614.854   5235177.832
10 0 59898  41262.000000  0     204760.857   3745606.920   5767360.089
10 0 59898  41382.000000  0     404483.855   2956549.524   6198114.894
10 0 59898  41502.000000  0     582856.716   2112572.759   6519904.921
10 0 59898  41622.000000  0     735940.346   1228827.800   6727105.840
10 0 59898  41742.000000  0     860509.141    321211.559   6816098.767
10 0 59898  41862.000000  0     954116.607   -593918.857   6785328.936
10 0 59898  41982.000000  0    1015142.580  -1500040.254   6635332.502
10 0 59898  42102.000000  0    1042821.330  -2380761.525   6368728.072
10 0 59898  42222.000000  0    1037250.151  -3220120.878   5990174.467
10 0 59898  42342.000000  0     999377.463  -4002877.636   5506292.733
10 0 59898  42462.000000  0     930972.313  -4714790.926   4925554.942
10 0 59898  42582.000000  0     834575.584  -5342883.582   4258142.818
10 0 59898  42702.000000  0     713433.041  -5875688.041   3515774.844
10 0 59898  42822.000000  0     571411.339  -6303466.285   2711502.311
10 0 59898  42942.000000  0     412898.699  -6618397.707   1859478.923
10 0 59898  43062.000000  0     242692.556  -6814730.618    974708.796
10 0 59898  43182.000000  0      65877.362  -6888896.032     72776.534
10 0 59898  43302.000000  0    -112305.653  -6839576.546   -830437.660
10 0 59898  43422.000000  0    -286591.474  -6667727.349  -1719047.505
10 0 59898  43542.000000  0    -451824.127  -6376551.831  -2577447.440
10 0 59898  43662.000000  0    -603086.244  -5971433.962  -3390592.316
10 0 59898  43782.000000  0    -735822.461  -5459827.908  -4144264.762
10 0 59898  43902.000000  0    -845953.168  -4851107.410  -4825323.456
10 0 59898  44022.000000  0    -929976.005  -4156381.419  -5421927.019
10 0 59898  44142.000000  0    -985053.055  -3388280.944  -5923731.927
10 0 59898  44262.000000  0   -1009081.873  -2560721.664  -6322061.787
10 0 59898  44382.000000  0   -1000749.424  -1688647.213  -6610045.993
10 0 59898  44502.000000  0    -959568.287   -787759.103  -6782726.757
10 0 59898  44622.000000  0    -885894.869    125762.689  -6837135.629
10 0 59898  44742.000000  0    -780928.388   1035544.537  -6772337.934
10 0 59898  44862.000000  0    -646691.567   1925304.689  -6589446.768
10 0 59898  44982.000000  0    -485993.694   2779136.973  -6291606.117
10 0 59898  45102.000000  0    -302375.560   3581789.790  -5883944.195
10 0 59898  45222.000000  0    -100036.704   4318936.996  -5373494.468
10 0 59898  45342.000000  0     116253.280   4977434.202  -4769085.220
10 0 59898  45462.000000  0     341257.838   5545558.857  -4081198.667
10 0 59898  45582.000000  0     569389.800   6013228.004  -3321798.843
10 0 59898  45702.000000  0     794838.537   6372188.227  -2504131.014
10 0 59898  45822.000000  0    1011705.417   6616174.227  -1642495.085
10 0 59898  45942.000000  0    1214144.418   6741030.961   -751995.599
10 0 59898  46062.000000  0    1396504.624   6744795.225    151726.847
10 0 59898  46182.000000  0    1553470.755   6627732.955   1052777.211
10 0 59898  46302.000000  0    1680197.034   6392331.822   1935293.162
10 0 59898  46422.000000  0    1772432.294   6043250.368   2783732.361
10 0 59898  46542.000000  0    1826632.893   5587223.945   3583153.950
10 0 59898  46662.000000  0    1840060.069   5032929.331   4319489.149
10 0 59898  46782.000000  0    1810859.472   4390810.582   4979793.378
10 0 59898  46902.000000  0    1738120.860   3672870.461   5552475.278
10 0 59898  47022.000000  0    1621916.339   2892437.071   6027495.061
10 0 59898  47142.000000  0    1463318.252   2063910.332   6396536.470
10 0 59898  47262.000000  0    1264394.955   1202490.457   6653147.270
10 0 59898  47382.000000  0    1028185.259    323895.208   6792845.212
10 0 59898  47502.000000  0     758652.141   -555926.343   6813190.706
10 0 59898  47622.000000  0     460616.121  -1421082.672   6713828.541
10 0 59898  47742.000000  0     139668.849  -2256027.089   6496493.855
10 0 59898  47862.000000  0    -197931.764  -3045837.577   6164983.780
10 0 59898  47982.000000  0    -545382.041  -3776485.027   5725092.988
10 0 59898  48102.000000  0    -895466.386  -4435083.007   5184516.902
10 0 59898  48222.000000  0   -1240703.750  -5010119.388   4552725.809
10 0 59898  48342.000000  0   -1573505.432  -5491667.175   3840805.912
10 0 59898  48462.000000  0   -1886338.974  -5871566.139   3061267.011
10 0 59898  48582.000000  0   -2171895.078  -6143569.791   2227822.619
10 0 59898  48702.000000  0   -2423253.873  -6303455.649   1355146.358
10 0 59898  48822.000000  0   -2634045.080  -6349095.899    458607.992
10 0 59898  48942.000000  0   -2798598.722  -6280486.263   -446004.855
10 0 59898  49062.000000  0   -2912082.476  -6099731.965  -1342773.475
10 0 59898  49182.000000  0   -2970622.440  -5810990.928  -2215936.950
10 0 59898  49302.000000  0   -2971404.273  -5420375.997  -3050176.656
10 0 59898  49422.000000  0   -2912751.728  -4935818.530  -3830890.345
10 0 59898  49542.000000  0   -2794180.575  -4366897.574  -4544448.638
10 0 59898  49662.000000  0   -2616427.780  -3724641.038  -5178429.350
10 0 59898  49782.000000  0   -2381456.229  -3021303.916  -5721826.920
10 0 59898  49902.000000  0   -2092435.202  -2270128.446  -6165234.457
10 0 59898  50022.000000  0   -1753696.176  -1485091.145  -6500996.166
10 0 59898  50142.000000  0   -1370665.809   -680642.060  -6723327.679
10 0 59898  50262.000000  0    -949778.812    128558.407  -6828404.495
10 0 59898  50382.000000  0    -498371.164    927900.638  -6814420.042
10 0 59898  50502.000000  0     -24554.578   1703082.641  -6681613.250
10 0 59898  50622.000000  0     462924.361   2440358.911  -6432265.218
10 0 59898  50742.000000  0     954841.592   3126779.827  -6070666.560
10 0 59898  50862.000000  0    1441666.475   3750417.368  -5603050.882
10 0 59898  50982.000000  0    1913742.042   4300572.440  -5037497.346
10 0 59898  51102.000000  0    2361473.791   4767962.443  -4383803.240
10 0 59898  51222.000000  0    2775522.923   5144885.431  -3653324.602
10 0 59898  51342.000000  0    3146999.840   5425355.670  -2858787.623
10 0 59898  51462.000000  0    3467655.035   5605208.824  -2014072.928
10 0 59898  51582.000000  0    3730061.982   5682172.224  -1133974.850
10 0 59898  51702.000000  0    3927786.862   5655898.707   -233940.184
10 0 59898  51822.000000  0    4055540.694   5527961.822    670208.406
10 0 59898  51942.000000  0    4109310.058   5301811.670   1562558.180
10 0 59898  52062.000000  0    4086462.344   4982692.701   2427393.667
10 0 59898  52182.000000  0    3985824.498   4577528.150   3249482.738
10 0 59898  52302.000000  0    3807729.383   4094767.162   4014353.422
10 0 59898  52422.000000  0    3554032.587   3544204.539   4708551.642
10 0 59898  52542.000000  0    3228098.539   2936777.936   5319881.780
10 0 59898  52662.000000  0    2834752.150   2284343.482   5837620.449
10 0 59898  52782.000000  0    2380204.909   1599439.006   6252698.461
10 0 59898  52902.000000  0    1871953.718    895039.162   6557854.814
10 0 59898  53022.000000  0    1318653.698    184307.623   6747756.903
10 0 59898  53142.000000  0     729968.651   -519647.729   6819088.483
99
